[{"OBJECT_NAME":"ONEWEB-0205","OBJECT_ID":"2021-031S","EPOCH":"2026-05-24T22:07:27.185952","MEAN_MOTION":13.14504025,"ECCENTRICITY":0.0001748,"INCLINATION":87.8948,"RA_OF_ASC_NODE":294.3348,"ARG_OF_PERICENTER":106.7248,"MEAN_ANOMALY":253.4073,"EPHEMERIS_TYPE":0,"CLASSIFICATION_TYPE":"U","NORAD_CAT_ID":48226,"ELEMENT_SET_NO":999,"REV_AT_EPOCH":24521,"BSTAR":-0.00017508,"MEAN_MOTION_DOT":-5.2e-07,"MEAN_MOTION_DDOT":0.0},{"OBJECT_NAME":"ONEWEB-0206","OBJECT_ID":"2021-031T","EPOCH":"2026-05-24T21:28:37.445376","MEAN_MOTION":13.14502668,"ECCENTRICITY":0.0001878,"INCLINATION":87.8948,"RA_OF_ASC_NODE":294.3423,"ARG_OF_PERICENTER":92.6078,"MEAN_ANOMALY":267.5267,"EPHEMERIS_TYPE":0,"CLASSIFICATION_TYPE":"U","NORAD_CAT_ID":48227,"ELEMENT_SET_NO":999,"REV_AT_EPOCH":24516,"BSTAR":-0.0005577900000000001,"MEAN_MOTION_DOT":-1.94e-06,"MEAN_MOTION_DDOT":0.0},{"OBJECT_NAME":"ONEWEB-0182","OBJECT_ID":"2021-031U","EPOCH":"2026-05-24T21:21:45.249120","MEAN_MOTION":13.14501172,"ECCENTRICITY":0.0002054,"INCLINATION":87.8943,"RA_OF_ASC_NODE":294.3518,"ARG_OF_PERICENTER":99.2997,"MEAN_ANOMALY":260.8365,"EPHEMERIS_TYPE":0,"CLASSIFICATION_TYPE":"U","NORAD_CAT_ID":48228,"ELEMENT_SET_NO":999,"REV_AT_EPOCH":24537,"BSTAR":-0.00036409,"MEAN_MOTION_DOT":-1.22e-06,"MEAN_MOTION_DDOT":0.0},{"OBJECT_NAME":"ONEWEB-0186","OBJECT_ID":"2021-031V","EPOCH":"2026-05-24T21:37:43.908960","MEAN_MOTION":13.14501379,"ECCENTRICITY":0.0001812,"INCLINATION":87.8948,"RA_OF_ASC_NODE":294.3386,"ARG_OF_PERICENTER":101.4935,"MEAN_ANOMALY":258.6399,"EPHEMERIS_TYPE":0,"CLASSIFICATION_TYPE":"U","NORAD_CAT_ID":48229,"ELEMENT_SET_NO":999,"REV_AT_EPOCH":24532,"BSTAR":-0.00076872,"MEAN_MOTION_DOT":-2.72e-06,"MEAN_MOTION_DDOT":0.0},{"OBJECT_NAME":"ONEWEB-0181","OBJECT_ID":"2021-031W","EPOCH":"2026-05-24T22:55:23.880000","MEAN_MOTION":13.1450178,"ECCENTRICITY":0.0001694,"INCLINATION":87.8933,"RA_OF_ASC_NODE":294.3611,"ARG_OF_PERICENTER":103.0966,"MEAN_ANOMALY":257.0353,"EPHEMERIS_TYPE":0,"CLASSIFICATION_TYPE":"U","NORAD_CAT_ID":48230,"ELEMENT_SET_NO":999,"REV_AT_EPOCH":24518,"BSTAR":-2.4418000000000002e-05,"MEAN_MOTION_DOT":4e-08,"MEAN_MOTION_DDOT":0.0},{"OBJECT_NAME":"ONEWEB-0188","OBJECT_ID":"2021-031X","EPOCH":"2026-05-24T22:00:36.091296","MEAN_MOTION":13.14502774,"ECCENTRICITY":0.0001858,"INCLINATION":87.8934,"RA_OF_ASC_NODE":294.3674,"ARG_OF_PERICENTER":99.8551,"MEAN_ANOMALY":260.2789,"EPHEMERIS_TYPE":0,"CLASSIFICATION_TYPE":"U","NORAD_CAT_ID":48231,"ELEMENT_SET_NO":999,"REV_AT_EPOCH":24508,"BSTAR":-0.00029225000000000003,"MEAN_MOTION_DOT":-9.6e-07,"MEAN_MOTION_DDOT":0.0},{"OBJECT_NAME":"ONEWEB-0220","OBJECT_ID":"2021-031Y","EPOCH":"2026-05-24T22:57:40.522464","MEAN_MOTION":13.14500868,"ECCENTRICITY":0.0001876,"INCLINATION":87.8952,"RA_OF_ASC_NODE":294.3292,"ARG_OF_PERICENTER":105.2159,"MEAN_ANOMALY":254.9179,"EPHEMERIS_TYPE":0,"CLASSIFICATION_TYPE":"U","NORAD_CAT_ID":48232,"ELEMENT_SET_NO":999,"REV_AT_EPOCH":24535,"BSTAR":0.00022857,"MEAN_MOTION_DOT":9.8e-07,"MEAN_MOTION_DDOT":0.0},{"OBJECT_NAME":"ONEWEB-0165","OBJECT_ID":"2021-031Z","EPOCH":"2026-05-24T21:49:09.905088","MEAN_MOTION":13.14501813,"ECCENTRICITY":0.0001522,"INCLINATION":87.8943,"RA_OF_ASC_NODE":294.3529,"ARG_OF_PERICENTER":103.7041,"MEAN_ANOMALY":256.4258,"EPHEMERIS_TYPE":0,"CLASSIFICATION_TYPE":"U","NORAD_CAT_ID":48233,"ELEMENT_SET_NO":999,"REV_AT_EPOCH":24530,"BSTAR":-0.0005916000000000001,"MEAN_MOTION_DOT":-2.07e-06,"MEAN_MOTION_DDOT":0.0},{"OBJECT_NAME":"ONEWEB-0199","OBJECT_ID":"2021-031AA","EPOCH":"2026-05-24T21:26:19.933728","MEAN_MOTION":13.14501678,"ECCENTRICITY":0.0001934,"INCLINATION":87.8951,"RA_OF_ASC_NODE":294.3404,"ARG_OF_PERICENTER":92.8656,"MEAN_ANOMALY":267.2695,"EPHEMERIS_TYPE":0,"CLASSIFICATION_TYPE":"U","NORAD_CAT_ID":48234,"ELEMENT_SET_NO":999,"REV_AT_EPOCH":24520,"BSTAR":-0.00046425,"MEAN_MOTION_DOT":-1.59e-06,"MEAN_MOTION_DDOT":0.0},{"OBJECT_NAME":"ONEWEB-0203","OBJECT_ID":"2021-031AB","EPOCH":"2026-05-24T23:02:13.910208","MEAN_MOTION":13.14500744,"ECCENTRICITY":0.0001702,"INCLINATION":87.8956,"RA_OF_ASC_NODE":294.3309,"ARG_OF_PERICENTER":94.0637,"MEAN_ANOMALY":266.0688,"EPHEMERIS_TYPE":0,"CLASSIFICATION_TYPE":"U","NORAD_CAT_ID":48235,"ELEMENT_SET_NO":999,"REV_AT_EPOCH":24522,"BSTAR":-6.426500000000001e-05,"MEAN_MOTION_DOT":-1.1e-07,"MEAN_MOTION_DDOT":0.0},{"OBJECT_NAME":"ONEWEB-0197","OBJECT_ID":"2021-031AC","EPOCH":"2026-05-24T22:25:31.444608","MEAN_MOTION":13.14502142,"ECCENTRICITY":0.0002068,"INCLINATION":87.8939,"RA_OF_ASC_NODE":294.3245,"ARG_OF_PERICENTER":102.8749,"MEAN_ANOMALY":257.2612,"EPHEMERIS_TYPE":0,"CLASSIFICATION_TYPE":"U","NORAD_CAT_ID":48236,"ELEMENT_SET_NO":999,"REV_AT_EPOCH":24513,"BSTAR":0.00041532000000000006,"MEAN_MOTION_DOT":1.67e-06,"MEAN_MOTION_DDOT":0.0},{"OBJECT_NAME":"ONEWEB-0194","OBJECT_ID":"2021-031AD","EPOCH":"2026-05-24T21:56:00.160800","MEAN_MOTION":13.14501076,"ECCENTRICITY":0.0001821,"INCLINATION":87.8943,"RA_OF_ASC_NODE":294.3493,"ARG_OF_PERICENTER":90.8711,"MEAN_ANOMALY":269.2627,"EPHEMERIS_TYPE":0,"CLASSIFICATION_TYPE":"U","NORAD_CAT_ID":48237,"ELEMENT_SET_NO":999,"REV_AT_EPOCH":24530,"BSTAR":-0.00043122,"MEAN_MOTION_DOT":-1.47e-06,"MEAN_MOTION_DDOT":0.0},{"OBJECT_NAME":"ONEWEB-0193","OBJECT_ID":"2021-031AE","EPOCH":"2026-05-24T22:18:50.691168","MEAN_MOTION":13.14501396,"ECCENTRICITY":0.0001865,"INCLINATION":87.894,"RA_OF_ASC_NODE":294.3371,"ARG_OF_PERICENTER":84.3063,"MEAN_ANOMALY":275.8279,"EPHEMERIS_TYPE":0,"CLASSIFICATION_TYPE":"U","NORAD_CAT_ID":48238,"ELEMENT_SET_NO":999,"REV_AT_EPOCH":24525,"BSTAR":0.00036102000000000004,"MEAN_MOTION_DOT":1.47e-06,"MEAN_MOTION_DDOT":0.0},{"OBJECT_NAME":"ONEWEB-0191","OBJECT_ID":"2021-031AF","EPOCH":"2026-05-24T22:34:50.269440","MEAN_MOTION":13.14501317,"ECCENTRICITY":0.0002017,"INCLINATION":87.8945,"RA_OF_ASC_NODE":294.3319,"ARG_OF_PERICENTER":99.3319,"MEAN_ANOMALY":260.8039,"EPHEMERIS_TYPE":0,"CLASSIFICATION_TYPE":"U","NORAD_CAT_ID":48239,"ELEMENT_SET_NO":999,"REV_AT_EPOCH":24511,"BSTAR":0.00055229,"MEAN_MOTION_DOT":2.18e-06,"MEAN_MOTION_DDOT":0.0},{"OBJECT_NAME":"ONEWEB-0195","OBJECT_ID":"2021-031AG","EPOCH":"2026-05-24T22:01:43.017600","MEAN_MOTION":13.14504528,"ECCENTRICITY":0.0001511,"INCLINATION":87.8953,"RA_OF_ASC_NODE":294.3373,"ARG_OF_PERICENTER":107.2368,"MEAN_ANOMALY":252.8927,"EPHEMERIS_TYPE":0,"CLASSIFICATION_TYPE":"U","NORAD_CAT_ID":48240,"ELEMENT_SET_NO":999,"REV_AT_EPOCH":24509,"BSTAR":-0.00032534,"MEAN_MOTION_DOT":-1.08e-06,"MEAN_MOTION_DDOT":0.0},{"OBJECT_NAME":"ONEWEB-0201","OBJECT_ID":"2021-031AH","EPOCH":"2026-05-24T19:55:12.026784","MEAN_MOTION":13.14503426,"ECCENTRICITY":0.000206,"INCLINATION":87.894,"RA_OF_ASC_NODE":294.3726,"ARG_OF_PERICENTER":104.4506,"MEAN_ANOMALY":255.6853,"EPHEMERIS_TYPE":0,"CLASSIFICATION_TYPE":"U","NORAD_CAT_ID":48241,"ELEMENT_SET_NO":999,"REV_AT_EPOCH":24531,"BSTAR":-0.00070666,"MEAN_MOTION_DOT":-2.49e-06,"MEAN_MOTION_DDOT":0.0}]