ONEWEB-0205             
1 48226U 21031S   26144.92184243 -.00000052  00000+0 -17508-3 0  9991
2 48226  87.8948 294.3348 0001748 106.7248 253.4073 13.14504025245212
ONEWEB-0206             
1 48227U 21031T   26144.89487784 -.00000194  00000+0 -55779-3 0  9993
2 48227  87.8948 294.3423 0001878  92.6078 267.5267 13.14502668245161
ONEWEB-0182             
1 48228U 21031U   26144.89010705 -.00000122  00000+0 -36409-3 0  9999
2 48228  87.8943 294.3518 0002054  99.2997 260.8365 13.14501172245379
ONEWEB-0186             
1 48229U 21031V   26144.90120265 -.00000272  00000+0 -76872-3 0  9999
2 48229  87.8948 294.3386 0001812 101.4935 258.6399 13.14501379245323
ONEWEB-0181             
1 48230U 21031W   26144.95513750  .00000004  00000+0 -24418-4 0  9993
2 48230  87.8933 294.3611 0001694 103.0966 257.0353 13.14501780245183
ONEWEB-0188             
1 48231U 21031X   26144.91708439 -.00000096  00000+0 -29225-3 0  9992
2 48231  87.8934 294.3674 0001858  99.8551 260.2789 13.14502774245080
ONEWEB-0220             
1 48232U 21031Y   26144.95671901  .00000098  00000+0  22857-3 0  9994
2 48232  87.8952 294.3292 0001876 105.2159 254.9179 13.14500868245358
ONEWEB-0165             
1 48233U 21031Z   26144.90914242 -.00000207  00000+0 -59160-3 0  9999
2 48233  87.8943 294.3529 0001522 103.7041 256.4258 13.14501813245304
ONEWEB-0199             
1 48234U 21031AA  26144.89328627 -.00000159  00000+0 -46425-3 0  9990
2 48234  87.8951 294.3404 0001934  92.8656 267.2695 13.14501678245206
ONEWEB-0203             
1 48235U 21031AB  26144.95988322 -.00000011  00000+0 -64265-4 0  9992
2 48235  87.8956 294.3309 0001702  94.0637 266.0688 13.14500744245226
ONEWEB-0197             
1 48236U 21031AC  26144.93439172  .00000167  00000+0  41532-3 0  9996
2 48236  87.8939 294.3245 0002068 102.8749 257.2612 13.14502142245138
ONEWEB-0194             
1 48237U 21031AD  26144.91389075 -.00000147  00000+0 -43122-3 0  9998
2 48237  87.8943 294.3493 0001821  90.8711 269.2627 13.14501076245303
ONEWEB-0193             
1 48238U 21031AE  26144.92975337  .00000147  00000+0  36102-3 0  9990
2 48238  87.8940 294.3371 0001865  84.3063 275.8279 13.14501396245257
ONEWEB-0191             
1 48239U 21031AF  26144.94085960  .00000218  00000+0  55229-3 0  9997
2 48239  87.8945 294.3319 0002017  99.3319 260.8039 13.14501317245111
ONEWEB-0195             
1 48240U 21031AG  26144.91785900 -.00000108  00000+0 -32534-3 0  9991
2 48240  87.8953 294.3373 0001511 107.2368 252.8927 13.14504528245094
ONEWEB-0201             
1 48241U 21031AH  26144.83000031 -.00000249  00000+0 -70666-3 0  9992
2 48241  87.8940 294.3726 0002060 104.4506 255.6853 13.14503426245316
